CCSDS_OMM_VERS = 2.0
CREATION_DATE  = 
ORIGINATOR     = 

OBJECT_NAME    = SILVERSAT
OBJECT_ID      = 1998-067XV
CENTER_NAME    = EARTH
REF_FRAME      = TEME
TIME_SYSTEM    = UTC
MEAN_ELEMENT_THEORY = SGP/SGP4

EPOCH          = 2026-02-08T16:42:33.024384
MEAN_MOTION    = 15.63047700
ECCENTRICITY   = .00024559
INCLINATION    = 51.6268
RA_OF_ASC_NODE = 212.3016
ARG_OF_PERICENTER = 240.1413
MEAN_ANOMALY   = 119.9338

EPHEMERIS_TYPE = 0
CLASSIFICATION_TYPE = U
NORAD_CAT_ID   = 66909
ELEMENT_SET_NO = 999
REV_AT_EPOCH   = 1064
BSTAR          = .11970183E-2
MEAN_MOTION_DOT = .112035E-2
MEAN_MOTION_DDOT = 0

CCSDS_OMM_VERS = 2.0
CREATION_DATE  = 
ORIGINATOR     = 

OBJECT_NAME    = ISS OBJECT XW
OBJECT_ID      = 1998-067XW
CENTER_NAME    = EARTH
REF_FRAME      = TEME
TIME_SYSTEM    = UTC
MEAN_ELEMENT_THEORY = SGP/SGP4

EPOCH          = 2026-02-08T17:04:43.362336
MEAN_MOTION    = 15.61610309
ECCENTRICITY   = .00010211
INCLINATION    = 51.6259
RA_OF_ASC_NODE = 212.4001
ARG_OF_PERICENTER = 268.1943
MEAN_ANOMALY   = 91.8934

EPHEMERIS_TYPE = 0
CLASSIFICATION_TYPE = U
NORAD_CAT_ID   = 66910
ELEMENT_SET_NO = 999
REV_AT_EPOCH   = 1064
BSTAR          = .97308604E-3
MEAN_MOTION_DOT = .85719E-3
MEAN_MOTION_DDOT = 0

CCSDS_OMM_VERS = 2.0
CREATION_DATE  = 
ORIGINATOR     = 

OBJECT_NAME    = ISS OBJECT XX
OBJECT_ID      = 1998-067XX
CENTER_NAME    = EARTH
REF_FRAME      = TEME
TIME_SYSTEM    = UTC
MEAN_ELEMENT_THEORY = SGP/SGP4

EPOCH          = 2026-02-08T17:31:37.784352
MEAN_MOTION    = 15.64294985
ECCENTRICITY   = .00025868
INCLINATION    = 51.6250
RA_OF_ASC_NODE = 211.7740
ARG_OF_PERICENTER = 282.2358
MEAN_ANOMALY   = 77.8347

EPHEMERIS_TYPE = 0
CLASSIFICATION_TYPE = U
NORAD_CAT_ID   = 66911
ELEMENT_SET_NO = 999
REV_AT_EPOCH   = 1064
BSTAR          = .12434114E-2
MEAN_MOTION_DOT = .122432E-2
MEAN_MOTION_DDOT = 0

CCSDS_OMM_VERS = 2.0
CREATION_DATE  = 
ORIGINATOR     = 

OBJECT_NAME    = ISS OBJECT XY
OBJECT_ID      = 1998-067XY
CENTER_NAME    = EARTH
REF_FRAME      = TEME
TIME_SYSTEM    = UTC
MEAN_ELEMENT_THEORY = SGP/SGP4

EPOCH          = 2026-02-08T17:02:41.205696
MEAN_MOTION    = 15.58741559
ECCENTRICITY   = .00009645
INCLINATION    = 51.6281
RA_OF_ASC_NODE = 213.1466
ARG_OF_PERICENTER = 166.3031
MEAN_ANOMALY   = 193.7988

EPHEMERIS_TYPE = 0
CLASSIFICATION_TYPE = U
NORAD_CAT_ID   = 66912
ELEMENT_SET_NO = 999
REV_AT_EPOCH   = 1062
BSTAR          = .80332146E-3
MEAN_MOTION_DOT = .63111E-3
MEAN_MOTION_DDOT = 0

CCSDS_OMM_VERS = 2.0
CREATION_DATE  = 
ORIGINATOR     = 

OBJECT_NAME    = ISS OBJECT XZ
OBJECT_ID      = 1998-067XZ
CENTER_NAME    = EARTH
REF_FRAME      = TEME
TIME_SYSTEM    = UTC
MEAN_ELEMENT_THEORY = SGP/SGP4

EPOCH          = 2026-02-08T22:04:15.848832
MEAN_MOTION    = 15.49497273
ECCENTRICITY   = .00110412
INCLINATION    = 51.6307
RA_OF_ASC_NODE = 214.5423
ARG_OF_PERICENTER = 93.7358
MEAN_ANOMALY   = 266.4893

EPHEMERIS_TYPE = 0
CLASSIFICATION_TYPE = U
NORAD_CAT_ID   = 67683
ELEMENT_SET_NO = 999
REV_AT_EPOCH   = 32
BSTAR          = .67772977E-3
MEAN_MOTION_DOT = .37807E-3
MEAN_MOTION_DDOT = 0

CCSDS_OMM_VERS = 2.0
CREATION_DATE  = 
ORIGINATOR     = 

OBJECT_NAME    = GXIBA-1
OBJECT_ID      = 1998-067YA
CENTER_NAME    = EARTH
REF_FRAME      = TEME
TIME_SYSTEM    = UTC
MEAN_ELEMENT_THEORY = SGP/SGP4

EPOCH          = 2026-02-08T22:02:44.725344
MEAN_MOTION    = 15.49966187
ECCENTRICITY   = .00129969
INCLINATION    = 51.6305
RA_OF_ASC_NODE = 214.5360
ARG_OF_PERICENTER = 89.4198
MEAN_ANOMALY   = 270.8280

EPHEMERIS_TYPE = 0
CLASSIFICATION_TYPE = U
NORAD_CAT_ID   = 67684
ELEMENT_SET_NO = 999
REV_AT_EPOCH   = 32
BSTAR          = .11004782E-2
MEAN_MOTION_DOT = .62971E-3
MEAN_MOTION_DDOT = 0

CCSDS_OMM_VERS = 2.0
CREATION_DATE  = 
ORIGINATOR     = 

OBJECT_NAME    = LEOPARD
OBJECT_ID      = 1998-067YB
CENTER_NAME    = EARTH
REF_FRAME      = TEME
TIME_SYSTEM    = UTC
MEAN_ELEMENT_THEORY = SGP/SGP4

EPOCH          = 2026-02-08T22:03:54.803520
MEAN_MOTION    = 15.49591695
ECCENTRICITY   = .00129844
INCLINATION    = 51.6308
RA_OF_ASC_NODE = 214.5408
ARG_OF_PERICENTER = 89.2879
MEAN_ANOMALY   = 270.9598

EPHEMERIS_TYPE = 0
CLASSIFICATION_TYPE = U
NORAD_CAT_ID   = 67685
ELEMENT_SET_NO = 999
REV_AT_EPOCH   = 32
BSTAR          = .73213758E-3
MEAN_MOTION_DOT = .41071E-3
MEAN_MOTION_DDOT = 0

CCSDS_OMM_VERS = 2.0
CREATION_DATE  = 
ORIGINATOR     = 

OBJECT_NAME    = ISS OBJECT YC
OBJECT_ID      = 1998-067YC
CENTER_NAME    = EARTH
REF_FRAME      = TEME
TIME_SYSTEM    = UTC
MEAN_ELEMENT_THEORY = SGP/SGP4

EPOCH          = 2026-02-08T22:03:42.317856
MEAN_MOTION    = 15.49677606
ECCENTRICITY   = .0007832
INCLINATION    = 51.6311
RA_OF_ASC_NODE = 214.5399
ARG_OF_PERICENTER = 67.1670
MEAN_ANOMALY   = 293.0145

EPHEMERIS_TYPE = 0
CLASSIFICATION_TYPE = U
NORAD_CAT_ID   = 67686
ELEMENT_SET_NO = 999
REV_AT_EPOCH   = 32
BSTAR          = .79180413E-3
MEAN_MOTION_DOT = .44519E-3
MEAN_MOTION_DDOT = 0

CCSDS_OMM_VERS = 2.0
CREATION_DATE  = 
ORIGINATOR     = 

OBJECT_NAME    = CORAL
OBJECT_ID      = 1998-067YD
CENTER_NAME    = EARTH
REF_FRAME      = TEME
TIME_SYSTEM    = UTC
MEAN_ELEMENT_THEORY = SGP/SGP4

EPOCH          = 2026-02-08T22:04:03.415872
MEAN_MOTION    = 15.49554819
ECCENTRICITY   = .0007946
INCLINATION    = 51.6311
RA_OF_ASC_NODE = 214.5419
ARG_OF_PERICENTER = 68.2501
MEAN_ANOMALY   = 291.9333

EPHEMERIS_TYPE = 0
CLASSIFICATION_TYPE = U
NORAD_CAT_ID   = 67687
ELEMENT_SET_NO = 999
REV_AT_EPOCH   = 24
BSTAR          = .68556151E-3
MEAN_MOTION_DOT = .38287E-3
MEAN_MOTION_DDOT = 0

CCSDS_OMM_VERS = 2.0
CREATION_DATE  = 
ORIGINATOR     = 

OBJECT_NAME    = ISS OBJECT YE
OBJECT_ID      = 1998-067YE
CENTER_NAME    = EARTH
REF_FRAME      = TEME
TIME_SYSTEM    = UTC
MEAN_ELEMENT_THEORY = SGP/SGP4

EPOCH          = 2026-02-08T22:03:44.589312
MEAN_MOTION    = 15.49647851
ECCENTRICITY   = .00078244
INCLINATION    = 51.6313
RA_OF_ASC_NODE = 214.5398
ARG_OF_PERICENTER = 66.8805
MEAN_ANOMALY   = 293.3008

EPHEMERIS_TYPE = 0
CLASSIFICATION_TYPE = U
NORAD_CAT_ID   = 67688
ELEMENT_SET_NO = 999
REV_AT_EPOCH   = 24
BSTAR          = .76589477E-3
MEAN_MOTION_DOT = .42993E-3
MEAN_MOTION_DDOT = 0

